start=new Date('2023-04-26T00:00:00.000Z').valueOf();
sats=[{"EPOCH":"2023-04-25T07:39:57.583872","TIME_SYSTEM":"UTC","MEAN_MOTION_DOT":"0.00000179","RA_OF_ASC_NODE":"237.1523","MEAN_ANOMALY":"265.0655","SEMIMAJOR_AXIS":"6941.174","PERIOD":"95.920","APOAPSIS":"563.422","FILE":"3894154","OBJECT_NAME":"STARLINK-4387","ELEMENT_SET_NO":"999","TLE_LINE1":"1 53490U 22099AB  23115.31941648  .00000179  00000-0  18516-4 0  9993","MEAN_MOTION":"15.01251122","PERIAPSIS":"562.657","LAUNCH_DATE":"2022-08-12","ARG_OF_PERICENTER":"95.0632","INCLINATION":"97.6536","RCS_SIZE":"LARGE","OBJECT_ID":"2022-099AB","OBJECT_TYPE":"PAYLOAD","GP_ID":"230747655","MEAN_MOTION_DDOT":"0.0000000000000","BSTAR":"0.00001851600000","ECCENTRICITY":"0.00005510","REV_AT_EPOCH":"3878","NORAD_CAT_ID":"53490","COUNTRY_CODE":"US","DECAY_DATE":null,"REF_FRAME":"TEME","CENTER_NAME":"EARTH","TLE_LINE2":"2 53490  97.6536 237.1523 0000551  95.0632 265.0655 15.01251122 38783","MEAN_ELEMENT_THEORY":"SGP4","CLASSIFICATION_TYPE":"U","EPHEMERIS_TYPE":"0","SITE":"AFWTR"},{"ARG_OF_PERICENTER":"242.4470","LAUNCH_DATE":"2022-08-12","PERIAPSIS":"561.436","OBJECT_TYPE":"PAYLOAD","RCS_SIZE":"LARGE","OBJECT_ID":"2022-099AC","INCLINATION":"97.6534","MEAN_MOTION_DDOT":"0.0000000000000","GP_ID":"230744224","BSTAR":"-0.00002999600000","ECCENTRICITY":"0.00022850","NORAD_CAT_ID":"53491","REV_AT_EPOCH":"3854","REF_FRAME":"TEME","DECAY_DATE":null,"COUNTRY_CODE":"US","SITE":"AFWTR","EPHEMERIS_TYPE":"0","MEAN_ELEMENT_THEORY":"SGP4","CLASSIFICATION_TYPE":"U","CENTER_NAME":"EARTH","TLE_LINE2":"2 53491  97.6534 237.1430 0002285 242.4470 117.6522 15.01256780 38547","EPOCH":"2023-04-25T07:29:16.415520","MEAN_MOTION_DOT":"-0.00000444","TIME_SYSTEM":"UTC","RA_OF_ASC_NODE":"237.1430","APOAPSIS":"564.608","PERIOD":"95.920","MEAN_ANOMALY":"117.6522","SEMIMAJOR_AXIS":"6941.157","FILE":"3894092","TLE_LINE1":"1 53491U 22099AC  23115.31199555 -.00000444  00000-0 -29996-4 0  9997","OBJECT_NAME":"STARLINK-4450","ELEMENT_SET_NO":"999","MEAN_MOTION":"15.01256780"},{"EPOCH":"2023-04-25T07:34:58.433376","TIME_SYSTEM":"UTC","MEAN_MOTION_DOT":"-0.00000558","RA_OF_ASC_NODE":"237.1464","MEAN_ANOMALY":"87.2068","SEMIMAJOR_AXIS":"6941.176","PERIOD":"95.920","APOAPSIS":"563.375","FILE":"3894092","ELEMENT_SET_NO":"999","OBJECT_NAME":"STARLINK-4451","TLE_LINE1":"1 53492U 22099AD  23115.31595409 -.00000558  00000-0 -38891-4 0  9996","MEAN_MOTION":"15.01250674","PERIAPSIS":"562.706","LAUNCH_DATE":"2022-08-12","ARG_OF_PERICENTER":"272.9101","INCLINATION":"97.6528","OBJECT_ID":"2022-099AD","RCS_SIZE":"LARGE","OBJECT_TYPE":"PAYLOAD","GP_ID":"230742972","MEAN_MOTION_DDOT":"0.0000000000000","ECCENTRICITY":"0.00004820","BSTAR":"-0.00003889100000","REV_AT_EPOCH":"3854","NORAD_CAT_ID":"53492","COUNTRY_CODE":"US","DECAY_DATE":null,"REF_FRAME":"TEME","TLE_LINE2":"2 53492  97.6528 237.1464 0000482 272.9101  87.2068 15.01250674 38547","CENTER_NAME":"EARTH","CLASSIFICATION_TYPE":"U","EPHEMERIS_TYPE":"0","MEAN_ELEMENT_THEORY":"SGP4","SITE":"AFWTR"},{"DECAY_DATE":null,"REF_FRAME":"TEME","COUNTRY_CODE":"US","SITE":"AFWTR","MEAN_ELEMENT_THEORY":"SGP4","EPHEMERIS_TYPE":"0","CLASSIFICATION_TYPE":"U","TLE_LINE2":"2 53493  97.6510 237.1340 0003077 252.1022 107.9867 15.01242176 38542","CENTER_NAME":"EARTH","BSTAR":"-0.00055991000000","ECCENTRICITY":"0.00030770","NORAD_CAT_ID":"53493","REV_AT_EPOCH":"3854","OBJECT_TYPE":"PAYLOAD","OBJECT_ID":"2022-099AE","RCS_SIZE":"LARGE","INCLINATION":"97.6510","MEAN_MOTION_DDOT":"0.0000000000000","GP_ID":"230742723","ARG_OF_PERICENTER":"252.1022","LAUNCH_DATE":"2022-08-12","PERIAPSIS":"560.931","TLE_LINE1":"1 53493U 22099AE  23115.30853599 -.00007241  00000-0 -55991-3 0  9998","ELEMENT_SET_NO":"999","OBJECT_NAME":"STARLINK-4361","MEAN_MOTION":"15.01242176","FILE":"3894092","RA_OF_ASC_NODE":"237.1340","APOAPSIS":"565.203","PERIOD":"95.921","MEAN_ANOMALY":"107.9867","SEMIMAJOR_AXIS":"6941.202","EPOCH":"2023-04-25T07:24:17.509536","MEAN_MOTION_DOT":"-0.00007241","TIME_SYSTEM":"UTC"},{"MEAN_MOTION_DOT":"-0.00001051","TIME_SYSTEM":"UTC","EPOCH":"2023-04-25T07:31:56.887104","APOAPSIS":"564.045","PERIOD":"95.920","SEMIMAJOR_AXIS":"6941.174","MEAN_ANOMALY":"118.0234","RA_OF_ASC_NODE":"237.1440","FILE":"3894092","MEAN_MOTION":"15.01251295","TLE_LINE1":"1 53494U 22099AF  23115.31385286 -.00001051  00000-0 -77288-4 0  9990","OBJECT_NAME":"STARLINK-4340","ELEMENT_SET_NO":"999","ARG_OF_PERICENTER":"242.0843","LAUNCH_DATE":"2022-08-12","PERIAPSIS":"562.032","MEAN_MOTION_DDOT":"0.0000000000000","GP_ID":"230743974","OBJECT_TYPE":"PAYLOAD","OBJECT_ID":"2022-099AF","RCS_SIZE":"LARGE","INCLINATION":"97.6532","NORAD_CAT_ID":"53494","REV_AT_EPOCH":"3854","ECCENTRICITY":"0.00014500","BSTAR":"-0.00007728800000","SITE":"AFWTR","MEAN_ELEMENT_THEORY":"SGP4","CLASSIFICATION_TYPE":"U","EPHEMERIS_TYPE":"0","CENTER_NAME":"EARTH","TLE_LINE2":"2 53494  97.6532 237.1440 0001450 242.0843 118.0234 15.01251295 38543","DECAY_DATE":null,"REF_FRAME":"TEME","COUNTRY_CODE":"US"},{"COUNTRY_CODE":"US","DECAY_DATE":null,"REF_FRAME":"TEME","TLE_LINE2":"2 53495  97.6538 237.1334 0004390 265.1210  94.9513 15.01256721 38543","CENTER_NAME":"EARTH","MEAN_ELEMENT_THEORY":"SGP4","CLASSIFICATION_TYPE":"U","EPHEMERIS_TYPE":"0","SITE":"AFWTR","ECCENTRICITY":"0.00043900","BSTAR":"-0.00003589300000","REV_AT_EPOCH":"3854","NORAD_CAT_ID":"53495","INCLINATION":"97.6538","OBJECT_ID":"2022-099AG","RCS_SIZE":"LARGE","OBJECT_TYPE":"PAYLOAD","GP_ID":"230743724","MEAN_MOTION_DDOT":"0.0000000000000","PERIAPSIS":"559.975","LAUNCH_DATE":"2022-08-12","ARG_OF_PERICENTER":"265.1210","OBJECT_NAME":"STARLINK-4429","ELEMENT_SET_NO":"999","TLE_LINE1":"1 53495U 22099AG  23115.30643928 -.00000520  00000-0 -35893-4 0  9996","MEAN_MOTION":"15.01256721","FILE":"3894092","RA_OF_ASC_NODE":"237.1334","SEMIMAJOR_AXIS":"6941.157","MEAN_ANOMALY":"94.9513","PERIOD":"95.920","APOAPSIS":"566.069","EPOCH":"2023-04-25T07:21:16.353792","TIME_SYSTEM":"UTC","MEAN_MOTION_DOT":"-0.00000520"},{"BSTAR":"0.00061069000000","ECCENTRICITY":"0.00023080","REV_AT_EPOCH":"3882","NORAD_CAT_ID":"53496","COUNTRY_CODE":"US","REF_FRAME":"TEME","DECAY_DATE":null,"TLE_LINE2":"2 53496  97.6521 237.4004 0002308 257.2799 102.8168 15.01245268 38824","CENTER_NAME":"EARTH","EPHEMERIS_TYPE":"0","MEAN_ELEMENT_THEORY":"SGP4","CLASSIFICATION_TYPE":"U","SITE":"AFWTR","PERIAPSIS":"561.455","LAUNCH_DATE":"2022-08-12","ARG_OF_PERICENTER":"257.2799","INCLINATION":"97.6521","OBJECT_ID":"2022-099AH","RCS_SIZE":"LARGE","OBJECT_TYPE":"PAYLOAD","GP_ID":"230747813","MEAN_MOTION_DDOT":"0.0000000000000","FILE":"3894154","ELEMENT_SET_NO":"999","OBJECT_NAME":"STARLINK-4465","TLE_LINE1":"1 53496U 22099AH  23115.57675628  .00007791  00000-0  61069-3 0  9996","MEAN_MOTION":"15.01245268","EPOCH":"2023-04-25T13:50:31.742592","TIME_SYSTEM":"UTC","MEAN_MOTION_DOT":"0.00007791","RA_OF_ASC_NODE":"237.4004","SEMIMAJOR_AXIS":"6941.192","MEAN_ANOMALY":"102.8168","PERIOD":"95.920","APOAPSIS":"564.659"},{"NORAD_CAT_ID":"53497","REV_AT_EPOCH":"3854","ECCENTRICITY":"0.00043420","BSTAR":"-0.00003741900000","SITE":"AFWTR","CLASSIFICATION_TYPE":"U","MEAN_ELEMENT_THEORY":"SGP4","EPHEMERIS_TYPE":"0","TLE_LINE2":"2 53497  97.6537 237.1298 0004342 243.8932 116.1846 15.01255321 38545","CENTER_NAME":"EARTH","REF_FRAME":"TEME","DECAY_DATE":null,"COUNTRY_CODE":"US","ARG_OF_PERICENTER":"243.8932","LAUNCH_DATE":"2022-08-12","PERIAPSIS":"560.012","MEAN_MOTION_DDOT":"0.0000000000000","GP_ID":"230743223","OBJECT_TYPE":"PAYLOAD","OBJECT_ID":"2022-099AJ","RCS_SIZE":"LARGE","INCLINATION":"97.6537","FILE":"3894092","MEAN_MOTION":"15.01255321","TLE_LINE1":"1 53497U 22099AJ  23115.30273940 -.00000540  00000-0 -37419-4 0  9999","ELEMENT_SET_NO":"999","OBJECT_NAME":"STARLINK-4453","MEAN_MOTION_DOT":"-0.00000540","TIME_SYSTEM":"UTC","EPOCH":"2023-04-25T07:15:56.684160","APOAPSIS":"566.040","PERIOD":"95.920","MEAN_ANOMALY":"116.1846","SEMIMAJOR_AXIS":"6941.161","RA_OF_ASC_NODE":"237.1298"},{"PERIOD":"95.920","MEAN_ANOMALY":"103.9666","SEMIMAJOR_AXIS":"6941.158","APOAPSIS":"565.440","RA_OF_ASC_NODE":"237.1355","MEAN_MOTION_DOT":"-0.00000363","TIME_SYSTEM":"UTC","EPOCH":"2023-04-25T07:23:56.450400","MEAN_MOTION":"15.01256515","TLE_LINE1":"1 53498U 22099AK  23115.30829225 -.00000363  00000-0 -23665-4 0  9994","ELEMENT_SET_NO":"999","OBJECT_NAME":"STARLINK-4439","FILE":"3894092","GP_ID":"230743474","MEAN_MOTION_DDOT":"0.0000000000000","INCLINATION":"97.6531","OBJECT_TYPE":"PAYLOAD","RCS_SIZE":"MEDIUM","OBJECT_ID":"2022-099AK","PERIAPSIS":"560.606","ARG_OF_PERICENTER":"256.1170","LAUNCH_DATE":"2022-08-12","CLASSIFICATION_TYPE":"U","MEAN_ELEMENT_THEORY":"SGP4","EPHEMERIS_TYPE":"0","TLE_LINE2":"2 53498  97.6531 237.1355 0003482 256.1170 103.9666 15.01256515 38549","CENTER_NAME":"EARTH","SITE":"AFWTR","REF_FRAME":"TEME","DECAY_DATE":null,"COUNTRY_CODE":"US","REV_AT_EPOCH":"3854","NORAD_CAT_ID":"53498","BSTAR":"-0.00002366500000","ECCENTRICITY":"0.00034820"},{"PERIAPSIS":"560.566","LAUNCH_DATE":"2022-08-12","ARG_OF_PERICENTER":"247.3692","INCLINATION":"97.6556","RCS_SIZE":"LARGE","OBJECT_ID":"2022-099AL","OBJECT_TYPE":"PAYLOAD","GP_ID":"230744225","MEAN_MOTION_DDOT":"0.0000000000000","BSTAR":"0.00004018300000","ECCENTRICITY":"0.00035240","REV_AT_EPOCH":"3854","NORAD_CAT_ID":"53499","COUNTRY_CODE":"US","DECAY_DATE":null,"REF_FRAME":"TEME","CENTER_NAME":"EARTH","TLE_LINE2":"2 53499  97.6556 237.1293 0003524 247.3692 112.7160 15.01260031 38541","EPHEMERIS_TYPE":"0","CLASSIFICATION_TYPE":"U","MEAN_ELEMENT_THEORY":"SGP4","SITE":"AFWTR","EPOCH":"2023-04-25T07:13:37.604352","TIME_SYSTEM":"UTC","MEAN_MOTION_DOT":"0.00000457","RA_OF_ASC_NODE":"237.1293","MEAN_ANOMALY":"112.7160","SEMIMAJOR_AXIS":"6941.147","PERIOD":"95.919","APOAPSIS":"565.458","FILE":"3894092","ELEMENT_SET_NO":"999","OBJECT_NAME":"STARLINK-4454","TLE_LINE1":"1 53499U 22099AL  23115.30112968  .00000457  00000-0  40183-4 0  9990","MEAN_MOTION":"15.01260031"}];
